<?xml version="1.0" encoding="UTF-8"?>
<gpx version="1.1" creator="Biker Friends" xmlns="http://www.topografix.com/GPX/1/1">
  <metadata>
    <name>Carretera Austral</name>
  </metadata>
  <trk>
    <name>Carretera Austral</name>
    <trkseg>
      <trkpt lat="-46.4000" lon="-71.9333"><ele>520</ele></trkpt>
      <trkpt lat="-46.5500" lon="-72.1000"><ele>680</ele></trkpt>
      <trkpt lat="-46.7000" lon="-72.3500"><ele>820</ele></trkpt>
      <trkpt lat="-46.9000" lon="-72.5000"><ele>1040</ele></trkpt>
      <trkpt lat="-47.1000" lon="-72.6500"><ele>1180</ele></trkpt>
      <trkpt lat="-47.3000" lon="-72.4000"><ele>1320</ele></trkpt>
      <trkpt lat="-47.5000" lon="-72.1000"><ele>980</ele></trkpt>
      <trkpt lat="-47.7000" lon="-71.8500"><ele>520</ele></trkpt>
    </trkseg>
  </trk>
</gpx>
